[{"OBJECT_NAME":"ONEWEB-0327","OBJECT_ID":"2021-083L","EPOCH":"2026-03-09T19:57:16.761600","MEAN_MOTION":13.18683947,"ECCENTRICITY":0.00013872,"INCLINATION":87.9243,"RA_OF_ASC_NODE":355.1992,"ARG_OF_PERICENTER":72.1565,"MEAN_ANOMALY":287.9718,"EPHEMERIS_TYPE":0,"CLASSIFICATION_TYPE":"U","NORAD_CAT_ID":49196,"ELEMENT_SET_NO":999,"REV_AT_EPOCH":21692,"BSTAR":0.00015807466,"MEAN_MOTION_DOT":7.5e-7,"MEAN_MOTION_DDOT":0},{"OBJECT_NAME":"UNKNOWN","OBJECT_ID":"","EPOCH":"2026-03-08T13:08:37.169088","MEAN_MOTION":13.1696465,"ECCENTRICITY":0.0246927,"INCLINATION":99.6563,"RA_OF_ASC_NODE":179.481,"ARG_OF_PERICENTER":164.5334,"MEAN_ANOMALY":196.3503,"EPHEMERIS_TYPE":0,"CLASSIFICATION_TYPE":"U","NORAD_CAT_ID":87843,"ELEMENT_SET_NO":999,"REV_AT_EPOCH":57545,"BSTAR":0.0051608,"MEAN_MOTION_DOT":2.283e-5,"MEAN_MOTION_DDOT":0}]
